LEMUR-2-JK0903EM1407    
1 58336U 23174CJ  26095.50903618  .00029510  00000+0  56017-3 0  9994
2 58336  97.3894 184.1604 0004809  27.4522 332.6981 15.48243982134471
LEMUR-2-MJR092620       
1 58340U 23174CN  26095.49457969  .00015016  00000+0  34329-3 0  9998
2 58340  97.3961 184.3217 0007037  33.0309 327.1377 15.42905706134432
LEMUR-2-NIMBUS2000      
1 58899U 24022A   26095.57482568  .00019813  00000+0  53381-3 0  9990
2 58899  97.4191 304.7545 0009606  27.9586 332.2173 15.37821883121100
LEMUR-2-VALHALLA        
1 58900U 24022B   26095.55823018  .00019519  00000+0  53012-3 0  9994
2 58900  97.4188 304.7607 0010002  23.2896 336.8800 15.37573321121101
LEMUR-2-OBA-NI-JESU     
1 58902U 24022D   26095.58953874  .00153528  00000+0  11411-2 0  9998
2 58902  97.3988 315.1454 0002261 330.4076  29.7059 15.72368687121815
LEMUR-2-CAEL            
1 58903U 24022E   26095.56074156  .00020590  00000+0  53853-3 0  9993
2 58903  97.4171 305.5789 0007881   8.4508 351.6869 15.38745526121167
LEMUR-2-JOHNNYTRUONG    
1 59146U 24043BA  26095.37217501  .00047973  00000+0  70393-3 0  9990
2 59146  97.5309 242.8963 0004931  95.1752 265.0065 15.55372726116702
LEMUR-2-TOMATOKECHUP    
1 60471U 24149D   26095.17364249  .00016386  00000+0  49137-3 0  9996
2 60471  97.3807 177.1176 0003213 120.8626 239.2933 15.34550479 90966
LEMUR-2-STELLA          
1 60533U 24149BT  26095.50135125  .00016155  00000+0  98955-3 0  9997
2 60533  97.6743 177.7297 0000828 122.1614 237.9696 15.10265046 89526
LEMUR-2-MARHISYAM       
1 60536U 24149BW  26095.45704121  .00016017  00000+0  99416-3 0  9992
2 60536  97.6875 178.0561 0002102  46.0421 314.0981 15.09782823 89507
LEMUR-2-AHMED-ASRAR     
1 60576U 24149DN  26095.49159205  .00016199  00000+0  96897-3 0  9998
2 60576  97.7004 179.9139 0001361 200.2261 159.8915 15.11129783 89582
LEMUR-2-LLOYD           
1 60577U 24149DP  26095.47537223  .00014252  00000+0  93215-3 0  9996
2 60577  97.6761 176.6447 0004664  56.5891 303.5783 15.07879871 89438
LEMUR-2-SQUIRRELCOMM    
1 60578U 24149DQ  26095.53535777  .00007904  00000+0  54155-3 0  9992
2 60578  97.6721 176.7222 0004035 305.1374  54.9475 15.06323630 89462
LEMUR-2-SIERRINI        
1 60579U 24149DR  26095.46517073  .00015352  00000+0  96135-3 0  9994
2 60579  97.6842 177.8251 0006234  76.3862 283.8060 15.09456744 89484
LEMUR-2-WILSON          
1 62694U 25009CP  26095.47481566  .00003660  00000+0  34116-3 0  9998
2 62694  97.7036 175.2288 0001878 280.9133  79.1876 14.94849933 66491
LEMUR-2-STAR-FOX        
1 62696U 25009CR  26095.20886490  .00012737  00000+0  98870-3 0  9998
2 62696  97.6979 177.4274 0003340 107.7776 252.3813 15.01478559 66602
