[{"OBJECT_NAME":"LEMUR-2-JK0903EM1407","OBJECT_ID":"2023-174CJ","EPOCH":"2026-04-05T12:13:00.725952","MEAN_MOTION":15.48243982,"ECCENTRICITY":0.0004809,"INCLINATION":97.3894,"RA_OF_ASC_NODE":184.1604,"ARG_OF_PERICENTER":27.4522,"MEAN_ANOMALY":332.6981,"EPHEMERIS_TYPE":0,"CLASSIFICATION_TYPE":"U","NORAD_CAT_ID":58336,"ELEMENT_SET_NO":999,"REV_AT_EPOCH":13447,"BSTAR":0.00056016945,"MEAN_MOTION_DOT":0.0002951,"MEAN_MOTION_DDOT":0},{"OBJECT_NAME":"LEMUR-2-MJR092620","OBJECT_ID":"2023-174CN","EPOCH":"2026-04-05T11:52:11.685216","MEAN_MOTION":15.42905706,"ECCENTRICITY":0.00070373,"INCLINATION":97.3961,"RA_OF_ASC_NODE":184.3217,"ARG_OF_PERICENTER":33.0309,"MEAN_ANOMALY":327.1377,"EPHEMERIS_TYPE":0,"CLASSIFICATION_TYPE":"U","NORAD_CAT_ID":58340,"ELEMENT_SET_NO":999,"REV_AT_EPOCH":13443,"BSTAR":0.00034329484,"MEAN_MOTION_DOT":0.00015016,"MEAN_MOTION_DDOT":0},{"OBJECT_NAME":"LEMUR-2-NIMBUS2000","OBJECT_ID":"2024-022A","EPOCH":"2026-04-05T13:47:44.938752","MEAN_MOTION":15.37821883,"ECCENTRICITY":0.00096065,"INCLINATION":97.4191,"RA_OF_ASC_NODE":304.7545,"ARG_OF_PERICENTER":27.9586,"MEAN_ANOMALY":332.2173,"EPHEMERIS_TYPE":0,"CLASSIFICATION_TYPE":"U","NORAD_CAT_ID":58899,"ELEMENT_SET_NO":999,"REV_AT_EPOCH":12110,"BSTAR":0.00053380962,"MEAN_MOTION_DOT":0.00019813,"MEAN_MOTION_DDOT":0},{"OBJECT_NAME":"LEMUR-2-VALHALLA","OBJECT_ID":"2024-022B","EPOCH":"2026-04-05T13:23:51.087552","MEAN_MOTION":15.37573321,"ECCENTRICITY":0.0010002,"INCLINATION":97.4188,"RA_OF_ASC_NODE":304.7607,"ARG_OF_PERICENTER":23.2896,"MEAN_ANOMALY":336.88,"EPHEMERIS_TYPE":0,"CLASSIFICATION_TYPE":"U","NORAD_CAT_ID":58900,"ELEMENT_SET_NO":999,"REV_AT_EPOCH":12110,"BSTAR":0.00053012156,"MEAN_MOTION_DOT":0.00019519,"MEAN_MOTION_DDOT":0},{"OBJECT_NAME":"LEMUR-2-OBA-NI-JESU","OBJECT_ID":"2024-022D","EPOCH":"2026-04-05T14:08:56.147136","MEAN_MOTION":15.72368687,"ECCENTRICITY":0.00022612,"INCLINATION":97.3988,"RA_OF_ASC_NODE":315.1454,"ARG_OF_PERICENTER":330.4076,"MEAN_ANOMALY":29.7059,"EPHEMERIS_TYPE":0,"CLASSIFICATION_TYPE":"U","NORAD_CAT_ID":58902,"ELEMENT_SET_NO":999,"REV_AT_EPOCH":12181,"BSTAR":0.0011410603,"MEAN_MOTION_DOT":0.00153528,"MEAN_MOTION_DDOT":0},{"OBJECT_NAME":"LEMUR-2-CAEL","OBJECT_ID":"2024-022E","EPOCH":"2026-04-05T13:27:28.070784","MEAN_MOTION":15.38745526,"ECCENTRICITY":0.0007881,"INCLINATION":97.4171,"RA_OF_ASC_NODE":305.5789,"ARG_OF_PERICENTER":8.4508,"MEAN_ANOMALY":351.6869,"EPHEMERIS_TYPE":0,"CLASSIFICATION_TYPE":"U","NORAD_CAT_ID":58903,"ELEMENT_SET_NO":999,"REV_AT_EPOCH":12116,"BSTAR":0.00053852704,"MEAN_MOTION_DOT":0.0002059,"MEAN_MOTION_DDOT":0},{"OBJECT_NAME":"LEMUR-2-JOHNNYTRUONG","OBJECT_ID":"2024-043BA","EPOCH":"2026-04-05T08:55:55.920864","MEAN_MOTION":15.55372726,"ECCENTRICITY":0.00049316,"INCLINATION":97.5309,"RA_OF_ASC_NODE":242.8963,"ARG_OF_PERICENTER":95.1752,"MEAN_ANOMALY":265.0065,"EPHEMERIS_TYPE":0,"CLASSIFICATION_TYPE":"U","NORAD_CAT_ID":59146,"ELEMENT_SET_NO":999,"REV_AT_EPOCH":11670,"BSTAR":0.00070393276,"MEAN_MOTION_DOT":0.00047973,"MEAN_MOTION_DDOT":0},{"OBJECT_NAME":"LEMUR-2-TOMATOKECHUP","OBJECT_ID":"2024-149D","EPOCH":"2026-04-05T04:10:02.711136","MEAN_MOTION":15.34550479,"ECCENTRICITY":0.00032139,"INCLINATION":97.3807,"RA_OF_ASC_NODE":177.1176,"ARG_OF_PERICENTER":120.8626,"MEAN_ANOMALY":239.2933,"EPHEMERIS_TYPE":0,"CLASSIFICATION_TYPE":"U","NORAD_CAT_ID":60471,"ELEMENT_SET_NO":999,"REV_AT_EPOCH":9096,"BSTAR":0.0004913654,"MEAN_MOTION_DOT":0.00016386,"MEAN_MOTION_DDOT":0},{"OBJECT_NAME":"LEMUR-2-STELLA","OBJECT_ID":"2024-149BT","EPOCH":"2026-04-05T12:01:56.748000","MEAN_MOTION":15.10265046,"ECCENTRICITY":8.288e-5,"INCLINATION":97.6743,"RA_OF_ASC_NODE":177.7297,"ARG_OF_PERICENTER":122.1614,"MEAN_ANOMALY":237.9696,"EPHEMERIS_TYPE":0,"CLASSIFICATION_TYPE":"U","NORAD_CAT_ID":60533,"ELEMENT_SET_NO":999,"REV_AT_EPOCH":8952,"BSTAR":0.00098954674,"MEAN_MOTION_DOT":0.00016155,"MEAN_MOTION_DDOT":0},{"OBJECT_NAME":"LEMUR-2-MARHISYAM","OBJECT_ID":"2024-149BW","EPOCH":"2026-04-05T10:58:08.360544","MEAN_MOTION":15.09782823,"ECCENTRICITY":0.00021027,"INCLINATION":97.6875,"RA_OF_ASC_NODE":178.0561,"ARG_OF_PERICENTER":46.0421,"MEAN_ANOMALY":314.0981,"EPHEMERIS_TYPE":0,"CLASSIFICATION_TYPE":"U","NORAD_CAT_ID":60536,"ELEMENT_SET_NO":999,"REV_AT_EPOCH":8950,"BSTAR":0.00099415683,"MEAN_MOTION_DOT":0.00016017,"MEAN_MOTION_DDOT":0},{"OBJECT_NAME":"LEMUR-2-AHMED-ASRAR","OBJECT_ID":"2024-149DN","EPOCH":"2026-04-05T11:47:53.553120","MEAN_MOTION":15.11129783,"ECCENTRICITY":0.00013617,"INCLINATION":97.7004,"RA_OF_ASC_NODE":179.9139,"ARG_OF_PERICENTER":200.2261,"MEAN_ANOMALY":159.8915,"EPHEMERIS_TYPE":0,"CLASSIFICATION_TYPE":"U","NORAD_CAT_ID":60576,"ELEMENT_SET_NO":999,"REV_AT_EPOCH":8958,"BSTAR":0.00096896966,"MEAN_MOTION_DOT":0.00016199,"MEAN_MOTION_DDOT":0},{"OBJECT_NAME":"LEMUR-2-LLOYD","OBJECT_ID":"2024-149DP","EPOCH":"2026-04-05T11:24:32.160672","MEAN_MOTION":15.07879871,"ECCENTRICITY":0.00046642,"INCLINATION":97.6761,"RA_OF_ASC_NODE":176.6447,"ARG_OF_PERICENTER":56.5891,"MEAN_ANOMALY":303.5783,"EPHEMERIS_TYPE":0,"CLASSIFICATION_TYPE":"U","NORAD_CAT_ID":60577,"ELEMENT_SET_NO":999,"REV_AT_EPOCH":8943,"BSTAR":0.00093215287,"MEAN_MOTION_DOT":0.00014252,"MEAN_MOTION_DDOT":0},{"OBJECT_NAME":"LEMUR-2-SQUIRRELCOMM","OBJECT_ID":"2024-149DQ","EPOCH":"2026-04-05T12:50:54.911328","MEAN_MOTION":15.0632363,"ECCENTRICITY":0.00040352,"INCLINATION":97.6721,"RA_OF_ASC_NODE":176.7222,"ARG_OF_PERICENTER":305.1374,"MEAN_ANOMALY":54.9475,"EPHEMERIS_TYPE":0,"CLASSIFICATION_TYPE":"U","NORAD_CAT_ID":60578,"ELEMENT_SET_NO":999,"REV_AT_EPOCH":8946,"BSTAR":0.00054155406,"MEAN_MOTION_DOT":7.904e-5,"MEAN_MOTION_DDOT":0},{"OBJECT_NAME":"LEMUR-2-SIERRINI","OBJECT_ID":"2024-149DR","EPOCH":"2026-04-05T11:09:50.751072","MEAN_MOTION":15.09456744,"ECCENTRICITY":0.0006234,"INCLINATION":97.6842,"RA_OF_ASC_NODE":177.8251,"ARG_OF_PERICENTER":76.3862,"MEAN_ANOMALY":283.806,"EPHEMERIS_TYPE":0,"CLASSIFICATION_TYPE":"U","NORAD_CAT_ID":60579,"ELEMENT_SET_NO":999,"REV_AT_EPOCH":8948,"BSTAR":0.00096134529,"MEAN_MOTION_DOT":0.00015352,"MEAN_MOTION_DDOT":0},{"OBJECT_NAME":"LEMUR-2-WILSON","OBJECT_ID":"2025-009CP","EPOCH":"2026-04-05T11:23:44.073024","MEAN_MOTION":14.94849933,"ECCENTRICITY":0.0001878,"INCLINATION":97.7036,"RA_OF_ASC_NODE":175.2288,"ARG_OF_PERICENTER":280.9133,"MEAN_ANOMALY":79.1876,"EPHEMERIS_TYPE":0,"CLASSIFICATION_TYPE":"U","NORAD_CAT_ID":62694,"ELEMENT_SET_NO":999,"REV_AT_EPOCH":6649,"BSTAR":0.00034116359,"MEAN_MOTION_DOT":3.66e-5,"MEAN_MOTION_DDOT":0},{"OBJECT_NAME":"LEMUR-2-STAR-FOX","OBJECT_ID":"2025-009CR","EPOCH":"2026-04-05T05:00:45.927360","MEAN_MOTION":15.01478559,"ECCENTRICITY":0.00033407,"INCLINATION":97.6979,"RA_OF_ASC_NODE":177.4274,"ARG_OF_PERICENTER":107.7776,"MEAN_ANOMALY":252.3813,"EPHEMERIS_TYPE":0,"CLASSIFICATION_TYPE":"U","NORAD_CAT_ID":62696,"ELEMENT_SET_NO":999,"REV_AT_EPOCH":6660,"BSTAR":0.00098869978,"MEAN_MOTION_DOT":0.00012737,"MEAN_MOTION_DDOT":0}]
